NORAD_CAT_ID,OBJECT_NAME,OBJECT_TYPE,EPOCH,MEAN_MOTION,ECCENTRICITY,INCLINATION,RA_OF_ASC_NODE,ARG_OF_PERICENTER,MEAN_ANOMALY,BSTAR,MEAN_MOTION_DOT,MEAN_MOTION_DDOT,TLE_LINE0,TLE_LINE1,TLE_LINE2,SEMIMAJOR_AXIS,PERIOD,APOGEE,PERIGEE,DECAYED
53151.0,STARLINK-4040,PAYLOAD,2023-11-12 20:40:37,15.08845584,0.00014,53.2171,10.1714,83.9689,276.1462,2.7143e-05,1.44e-06,0.0,0 STARLINK-4040,1 53151U 22083V   23316.86154971  .00000144  00000-0  27143-4 0  9996,2 53151  53.2171  10.1714 0001400  83.9689 276.1462 15.08845584 73363,6917.863,95.437,540.697,538.76,0.0
53151.0,STARLINK-4040,PAYLOAD,2023-11-13 10:59:05,15.08857251,0.0001499,53.2168,7.4955,86.8102,273.3061,0.00054059,8.33e-05,0.0,0 STARLINK-4040,1 53151U 22083V   23317.45770736  .00008330  00000-0  54059-3 0  9995,2 53151  53.2168   7.4955 0001499  86.8102 273.3061 15.08857251 73453,6917.828,95.436,540.73,538.656,0.0
53151.0,STARLINK-4040,PAYLOAD,2023-11-13 12:34:29,15.08859855,0.0001545,53.2166,7.1981,87.536,272.5809,0.00078788,0.0001228,0.0,0 STARLINK-4040,1 53151U 22083V   23317.52394746  .00012280  00000-0  78788-3 0  9990,2 53151  53.2166   7.1981 0001545  87.5360 272.5809 15.08859855 74097,6917.82,95.436,540.754,538.616,0.0
53151.0,STARLINK-4040,PAYLOAD,2023-11-14 02:52:57,15.08851697,0.0001471,53.2162,4.522,92.3996,267.7164,0.0003425,5.169e-05,0.0,0 STARLINK-4040,1 53151U 22083V   23318.12010648  .00005169  00000-0  34250-3 0  9997,2 53151  53.2162   4.5220 0001471  92.3996 267.7164 15.08851697 74183,6917.845,95.437,540.727,538.692,0.0
53151.0,STARLINK-4040,PAYLOAD,2023-11-14 10:49:53,15.08838192,0.0001564,53.2163,3.0364,81.2999,278.8171,0.00010248,1.343e-05,0.0,0 STARLINK-4040,1 53151U 22083V   23318.45131075  .00001343  00000-0  10248-3 0  9992,2 53151  53.2163   3.0364 0001564  81.2999 278.8171 15.08838192 74232,6917.886,95.438,540.833,538.669,0.0
53151.0,STARLINK-4040,PAYLOAD,2023-11-14 20:22:12,15.08839305,0.0001619,53.2162,1.2522,77.5226,282.5948,0.00051201,7.87e-05,0.0,0 STARLINK-4040,1 53151U 22083V   23318.84875335  .00007870  00000-0  51201-3 0  9994,2 53151  53.2162   1.2522 0001619  77.5226 282.5948 15.08839305 73666,6917.883,95.438,540.868,538.628,0.0
53151.0,STARLINK-4040,PAYLOAD,2023-11-15 09:05:17,15.08840667,0.0001545,53.2162,358.8729,79.6718,280.4448,0.00034481,5.204e-05,0.0,0 STARLINK-4040,1 53151U 22083V   23319.37867441  .00005204  00000-0  34481-3 0  9992,2 53151  53.2162 358.8729 0001545  79.6718 280.4448 15.08840667 73747,6917.878,95.438,540.812,538.675,0.0
53151.0,STARLINK-4040,PAYLOAD,2023-11-16 07:20:41,15.08841914,0.0001637,53.2162,354.7096,77.8477,282.2698,0.0002418,3.563e-05,0.0,0 STARLINK-4040,1 53151U 22083V   23320.30603611  .00003563  00000-0  24180-3 0  9995,2 53151  53.2162 354.7096 0001637  77.8477 282.2698 15.08841914 74512,6917.875,95.437,540.872,538.607,0.0
53151.0,STARLINK-4040,PAYLOAD,2023-11-16 12:06:50,15.08846009,0.00016,53.2169,353.816,81.0801,279.0372,0.00027078,4.025e-05,0.0,0 STARLINK-4040,1 53151U 22083V   23320.50475406  .00004025  00000-0  27078-3 0  9999,2 53151  53.2169 353.8160 0001600  81.0801 279.0372 15.08846009 73915,6917.862,95.437,540.834,538.62,0.0
53151.0,STARLINK-4040,PAYLOAD,2023-11-17 02:25:19,15.08839439,0.0001734,53.2171,351.136,95.9758,264.1432,6.9835e-05,8.24e-06,0.0,0 STARLINK-4040,1 53151U 22083V   23321.10091631  .00000824  00000-0  69835-4 0  9991,2 53151  53.2171 351.1360 0001734  95.9758 264.1432 15.08839439 74635,6917.882,95.438,540.947,538.548,0.0
53151.0,STARLINK-4040,PAYLOAD,2023-11-17 08:46:51,15.08843459,0.000169,53.2171,349.9464,93.5178,266.6007,0.00013466,1.856e-05,0.0,0 STARLINK-4040,1 53151U 22083V   23321.36587493  .00001856  00000-0  13466-3 0  9999,2 53151  53.2171 349.9464 0001690  93.5178 266.6007 15.08843459 74043,6917.87,95.437,540.904,538.566,0.0
53151.0,STARLINK-4040,PAYLOAD,2023-11-18 08:37:38,15.08841739,0.0001576,53.2172,345.4892,93.607,266.5102,9.2285e-05,1.181e-05,0.0,0 STARLINK-4040,1 53151U 22083V   23322.35947694  .00001181  00000-0  92285-4 0  9990,2 53151  53.2172 345.4892 0001576  93.6070 266.5102 15.08841739 74825,6917.875,95.437,540.83,538.65,0.0
53151.0,STARLINK-4040,PAYLOAD,2023-11-18 21:20:44,15.08834283,0.0001539,53.217,343.1115,93.5987,266.5181,8.8006e-05,1.113e-05,0.0,0 STARLINK-4040,1 53151U 22083V   23322.88940180  .00001113  00000-0  88006-4 0  9992,2 53151  53.2170 343.1115 0001539  93.5987 266.5181 15.08834283 74273,6917.898,95.438,540.828,538.698,0.0
53151.0,STARLINK-4040,PAYLOAD,2023-11-19 00:31:30,15.08834272,0.0001548,53.217,342.5168,93.862,266.2549,8.2211e-05,1.02e-05,0.0,0 STARLINK-4040,1 53151U 22083V   23323.02188232  .00001020  00000-0  82211-4 0  9990,2 53151  53.2170 342.5168 0001548  93.8620 266.2549 15.08834272 74926,6917.898,95.438,540.834,538.692,0.0
53151.0,STARLINK-4040,PAYLOAD,2023-11-19 08:28:26,15.08837489,0.0001508,53.2173,341.0301,93.3688,266.7477,7.2162e-05,8.61e-06,0.0,0 STARLINK-4040,1 53151U 22083V   23323.35308179  .00000861  00000-0  72162-4 0  9996,2 53151  53.2173 341.0301 0001508  93.3688 266.7477 15.08837489 74341,6917.888,95.438,540.796,538.71,0.0
53151.0,STARLINK-4040,PAYLOAD,2023-11-19 18:00:45,15.08838745,0.0001502,53.2173,339.2458,92.4307,267.6857,8.6606e-05,1.091e-05,0.0,0 STARLINK-4040,1 53151U 22083V   23323.75052122  .00001091  00000-0  86606-4 0  9998,2 53151  53.2173 339.2458 0001502  92.4307 267.6857 15.08838745 74400,6917.884,95.438,540.788,538.71,0.0
53151.0,STARLINK-4040,PAYLOAD,2023-11-20 08:19:13,15.08842785,0.0001537,53.2177,336.5705,97.2727,262.844,0.00010321,1.355e-05,0.0,0 STARLINK-4040,1 53151U 22083V   23324.34667896  .00001355  00000-0  10321-3 0  9997,2 53151  53.2177 336.5705 0001537  97.2727 262.8440 15.08842785 75120,6917.872,95.437,540.8,538.674,0.0
53151.0,STARLINK-4040,PAYLOAD,2023-11-20 17:51:31,15.08843055,0.0001519,53.2176,334.7861,97.0146,263.1019,7.8365e-05,9.6e-06,0.0,0 STARLINK-4040,1 53151U 22083V   23324.74411935  .00000960  00000-0  78365-4 0  9996,2 53151  53.2176 334.7861 0001519  97.0146 263.1019 15.08843055 74558,6917.871,95.437,540.787,538.685,0.0
53151.0,STARLINK-4040,PAYLOAD,2023-11-21 09:45:22,15.08847007,0.0001488,53.217,331.8118,95.7128,264.4034,0.00017185,2.449e-05,0.0,0 STARLINK-4040,1 53151U 22083V   23325.40651532  .00002449  00000-0  17185-3 0  9995,2 53151  53.2170 331.8118 0001488  95.7128 264.4034 15.08847007 75288,6917.859,95.437,540.753,538.695,0.0
53151.0,STARLINK-4040,PAYLOAD,2023-11-22 00:03:51,15.08843876,0.0001622,53.2173,329.1342,86.8155,273.3023,0.00010104,1.321e-05,0.0,0 STARLINK-4040,1 53151U 22083V   23326.00267928  .00001321  00000-0  10104-3 0  9996,2 53151  53.2173 329.1342 0001622  86.8155 273.3023 15.08843876 75378,6917.869,95.437,540.856,538.611,0.0
53151.0,STARLINK-4040,PAYLOAD,2023-11-22 06:25:23,15.08848055,0.0001582,53.2174,327.945,82.1457,277.9715,3.9575e-05,3.42e-06,0.0,0 STARLINK-4040,1 53151U 22083V   23326.26763771  .00000342  00000-0  39575-4 0  9997,2 53151  53.2174 327.9450 0001582  82.1457 277.9715 15.08848055 74780,6917.856,95.437,540.815,538.626,0.0
53151.0,STARLINK-4040,PAYLOAD,2023-11-23 06:16:10,15.08831623,0.0001715,53.2174,323.4861,61.9826,298.134,-0.00017329,-3.044e-05,0.0,0 STARLINK-4040,1 53151U 22083V   23327.26123788 -.00003044  00000-0 -17329-3 0  9992,2 53151  53.2174 323.4861 0001715  61.9826 298.1340 15.08831623 75569,6917.906,95.438,540.957,538.585,0.0
53151.0,STARLINK-4040,PAYLOAD,2023-11-24 06:06:58,15.08837984,0.0001407,53.2167,319.0191,105.5248,254.59,-3.9754e-06,-3.51e-06,0.0,0 STARLINK-4040,1 53151U 22083V   23328.25483868 -.00000351  00000-0 -39754-5 0  9996,2 53151  53.2167 319.0191 0001407 105.5248 254.5900 15.08837984 75710,6917.887,95.438,540.725,538.778,0.0
53151.0,STARLINK-4040,PAYLOAD,2023-11-25 02:46:59,15.08837014,0.0001468,53.2156,315.1604,92.6622,267.4538,0.00050542,7.764e-05,0.0,0 STARLINK-4040,1 53151U 22083V   23329.11596937  .00007764  00000-0  50542-3 0  9993,2 53151  53.2156 315.1604 0001468  92.6622 267.4538 15.08837014 75841,6917.89,95.438,540.77,538.739,0.0
53151.0,STARLINK-4040,PAYLOAD,2023-11-25 05:57:45,15.08844775,0.0001553,53.2163,314.5646,104.3006,255.8159,0.00060994,9.434e-05,0.0,0 STARLINK-4040,1 53151U 22083V   23329.24844630  .00009434  00000-0  60994-3 0  9991,2 53151  53.2163 314.5646 0001553 104.3006 255.8159 15.08844775 75235,6917.866,95.437,540.805,538.656,0.0
53151.0,STARLINK-4040,PAYLOAD,2023-11-26 02:37:45,15.08865113,0.0001523,53.2158,310.6964,105.4414,254.6747,0.00056258,8.683e-05,0.0,0 STARLINK-4040,1 53151U 22083V   23330.10955581  .00008683  00000-0  56258-3 0  9999,2 53151  53.2158 310.6964 0001523 105.4414 254.6747 15.08865113 75993,6917.804,95.436,540.722,538.615,0.0
53151.0,STARLINK-4040,PAYLOAD,2023-11-26 08:59:17,15.08877774,0.0001819,53.2161,309.5042,110.6378,249.4809,0.00079337,0.00012374,0.0,0 STARLINK-4040,1 53151U 22083V   23330.37450990  .00012374  00000-0  79337-3 0  9997,2 53151  53.2161 309.5042 0001819 110.6378 249.4809 15.08877774 75409,6917.765,95.435,540.888,538.372,0.0
53151.0,STARLINK-4040,PAYLOAD,2023-11-27 04:03:56,15.08824451,0.0001496,53.2163,305.938,91.0385,269.0779,-0.00033515,-5.616e-05,0.0,0 STARLINK-4040,1 53151U 22083V   23331.16940886 -.00005616  00000-0 -33515-3 0  9994,2 53151  53.2163 305.9380 0001496  91.0385 269.0779 15.08824451 76158,6917.928,95.439,540.828,538.758,0.0
53151.0,STARLINK-4040,PAYLOAD,2023-11-28 02:19:20,15.08845573,0.0001856,53.2166,301.7724,109.4369,250.6824,0.00015062,2.11e-05,0.0,0 STARLINK-4040,1 53151U 22083V   23332.09676263  .00002110  00000-0  15062-3 0  9993,2 53151  53.2166 301.7724 0001856 109.4369 250.6824 15.08845573 76293,6917.863,95.437,541.012,538.444,0.0
53151.0,STARLINK-4040,PAYLOAD,2023-11-28 05:30:06,15.0885787,0.0001547,53.2159,301.1787,90.6597,269.4572,0.00070186,0.00010905,0.0,0 STARLINK-4040,1 53151U 22083V   23332.22924308  .00010905  00000-0  70186-3 0  9993,2 53151  53.2159 301.1787 0001547  90.6597 269.4572 15.08857870 75682,6917.826,95.436,540.761,538.621,0.0
